0101P         2020 01 13.0577  2.347238  0.594816  277.6593  116.2347    5.0504  20170314  10.0  4.8  101P/Chernykh                                            MPC 75718
0102P         2013 08 24.6504  2.052967  0.460007   20.6894  339.6886   26.0036  20170314   6.5  8.0  102P/Shoemaker                                           MPC 86232
0103P         2017 04 20.4994  1.065979  0.693458  181.3028  219.7244   13.5938  20170314   8.5  8.0  103P/Hartley                                             NK   2714
0104P         2016 03 28.2889  1.178446  0.638956  200.7118  235.3967   10.2671  20170314  16.0  4.0  104P/Kowal                                               MPC 10028
0105P         2018 08 10.5235  2.044582  0.410111   46.5255  192.4334    9.1766  20170314  11.5  6.0  105P/Singer Brewster                                     MPC 94676
0106P         2014 07 21.5189  1.527293  0.592004  355.9501   50.0921   20.3510  20170314  14.0  4.8  106P/Schuster                                            MPC 92276
0107P         2018 05 23.4343  0.971640  0.630630   95.1088  267.0061    2.7901  20170314  16.0  2.0  107P/Wilson-Harrington                                   MPC 94676
0108P         2014 10 21.2521  1.681982  0.548842  358.2601   52.9919   13.2746  20170314   8.0 12.0  108P/Ciffreo                                             MPC 89313
0109P         1992 12  4.0954  0.945183  0.963782  153.0336  139.6883  113.1779  20170314   4.5  6.0  109P/Swift-Tuttle                                        105,  420
0110P         2014 12 16.7876  2.468506  0.315655  167.4869  287.5606   11.6880  20170314   1.0 12.0  110P/Hartley                                             MPC 91618
0111P         2013 01 18.5065  3.703299  0.105371    1.8416   89.7682    4.2282  20170314   5.0  8.0  111P/Helin-Roman-Crockett                                MPC 75718
0112P         2020 02  9.3484  1.453947  0.588061   21.3510   31.9095   24.2046  20170314  14.0  6.0  112P/Urata-Niijima                                       MPC 69910
0113P         2015 04 26.8506  2.108731  0.428937   50.2013   14.3571    5.7647  20170314  13.5  4.0  113P/Spitaler                                            MPC 92984
0114P         2020 01 14.3955  1.578994  0.554514  172.8650  271.0639   18.2762  20170314  11.5  6.0  114P/Wiseman-Skiff                                       MPC 82722
0115P         2020 07 30.8351  2.059605  0.517858  121.0443  176.0465   11.6717  20170314  10.5  6.0  115P/Maury                                               MPC 76027
0116P         2016 01 11.5625  2.187429  0.372186  173.3302   20.9933    3.6082  20170314   2.5 10.0  116P/Wild                                                MPC102101
0117P         2014 03 26.7685  3.051918  0.254396  222.5073   58.8744    8.7008  20170314   2.5  8.0  117P/Helin-Roman-Alu                                     MPC 95735
0118P         2016 06 17.1011  1.980328  0.428465  302.3873  151.7230    8.5125  20170314  12.0  4.0  118P/Shoemaker-Levy                                      MPC 95735
0119P         2014 04  5.2582  2.953725  0.305784  182.2954  241.3713    5.3279  20170314   3.5  8.0  119P/Parker-Hartley                                      MPC 84628
0120P         2013 03  1.5610  2.629281  0.354927   28.7135    3.8033    8.8610  20170314  12.0  4.0  120P/Mueller                                             MPC 80901
0121P         2013 08 30.8953  3.751664  0.183185   11.5041   94.1427   20.1575  20170314   6.5  8.0  121P/Shoemaker-Holt                                      MPC 10028
0122P         1995 10 11.2711  0.660878  0.962582   13.0475   79.5437   84.8869  20170314   7.5  5.2  122P/de Vico                                             MPC 75718
0123P         2019 02  4.8894  2.126476  0.449095  102.9809   46.5025   15.3591  20170314   4.0 10.0  123P/West-Hartley                                        MPC102101
0124P         2014 04  9.9768  1.646204  0.503961  183.7976    0.4024   31.5312  20170314  13.5  2.8  124P/Mrkos                                               MPC 87068
0125P         2018 08 28.0256  1.520772  0.513271   87.1658  153.1869    9.9885  20170314  13.0  6.0  125P/Spacewatch                                          MPC 94676
0126P         2023 07  9.9884  1.720265  0.695088  356.5720  357.8189   45.7773  20170314   6.0  8.0  126P/IRAS                                                MPC 66205
0127P         2016 03 17.7090  2.205853  0.360431    6.6790   13.6498   14.3026  20170314  11.0  6.0  127P/Holt-Olmstead                                       MPC 84321
0128P         2017 01 10.7717  3.055868  0.321081  210.5749  214.2938    4.3647  20170314   8.5  4.0  128P/Shoemaker-Holt                                      MPC 75719
0129P         2014 02  5.6991  3.914502  0.084644  308.8840  184.8939    3.4442  20170314  11.0  4.0  129P/Shoemaker-Levy                                      MPC 10028
0130P         2018 01 21.6116  1.824180  0.461064  245.8383   70.2634    6.0637  20170314  10.0  6.0  130P/McNaught-Hughes                                     MPC 78188
0131P         2019 01 24.4961  2.417641  0.342882  179.1198  214.1943    7.3541  20170314  11.0  4.0  131P/Mueller                                             MPC102101
0132P         2014 06  8.6104  1.579275  0.589726  214.9387  178.1436    6.0848  20170314  11.0  6.0  132P/Helin-Roman-Alu                                     MPC 92985
0133P         2018 09 20.5160  2.660926  0.159232  131.5861  160.1277    1.3886  20170314  15.4  2.0  133P/Elst-Pizarro                                        MPC 94676
0134P         2014 05 21.9539  2.572059  0.588105   18.6912  202.0820    4.3502  20170314  11.5  4.0  134P/Kowal-Vavrova                                       MPC 89012
0135P         2014 11  2.0946  2.679535  0.295711   22.0443  213.0781    6.0630  20170314   7.0  8.0  135P/Shoemaker-Levy                                      MPC 92985
0136P         2016 05 31.0126  2.978854  0.291165  225.1352  137.4476    9.4156  20170314  11.0  4.0  136P/Mueller                                             MPC101100
0137P         2018 12 13.5032  1.932327  0.572418  140.9652  233.0740    4.8523  20170314  11.0  4.0  137P/Shoemaker-Levy                                      MPC 75719
0138P         2019 05  3.0546  1.704153  0.529603   95.5893  309.3519   10.0859  20170314  15.0  6.0  138P/Shoemaker-Levy                                      MPC102101
0139P         2017 12 11.0822  3.414164  0.246321  166.1045  242.2155    2.3326  20170314   9.5  4.0  139P/Vaisala-Oterma                                      MPC102101
0140P         2015 08  8.5384  1.988205  0.691576  172.9405  343.3857    3.8212  20170314  11.5  6.0  140P/Bowell-Skiff                                        MPC 92985
0141P         2015 08 25.8807  0.759301  0.749183  150.4577  245.0838   12.9554  20170314  12.0 12.0  141P/Machholz                                            MPC 94284
0142P         2021 05 17.2476  2.475543  0.500303  174.7555  176.4612   12.3518  20170314   8.5  6.0  142P/Ge-Wang                                             MPC 71683
0143P         2018 05  7.3927  2.532508  0.410129  320.8723  245.3119    4.6955  20170314  13.5  2.0  143P/Kowal-Mrkos                                         MPC 94676
0144P         2016 08 31.1056  1.431432  0.629113  216.1764  245.4737    4.1154  20170314   8.5  8.0  144P/Kushida                                             MPC101100
0145P         2017 08 31.9328  1.904039  0.540728   10.3778   26.8101   11.2599  20170314  13.5  4.0  145P/Shoemaker-Levy                                      MPC 75720
0146P         2016 06 30.1105  1.430068  0.645934  316.9698   53.4551   23.0732  20170314  15.0  4.0  146P/Shoemaker-LINEAR                                    MPC 10028
0147P         2016 02 28.3279  2.747529  0.277401  347.1954   93.7234    2.3687  20170314  14.0  4.0  147P/Kushida-Muramatsu                                   MPC 75720
0148P         2015 06 13.6823  1.688650  0.539954    6.6023   89.7243    3.6836  20170314  16.0  2.0  148P/Anderson-LINEAR                                     MPC 89730
0149P         2019 02 16.6595  2.634950  0.389956   43.6841  145.2491   29.7647  20170314   8.0  8.0  149P/Mueller                                             MPC 75720
0150P         2016 07 24.8937  1.759497  0.546894  245.6671  272.4134   18.5082  20170314  13.5  4.0  150P/LONEOS                                              MPC 75720
0151P         2015 10  7.9091  2.473115  0.571817  216.2220  143.1510    4.7197  20170314  10.0  6.0  151P/Helin                                               MPC 95214
0152P         2012 07  9.6863  3.105143  0.308278  163.5329   91.8702    9.8740  20170314  11.5  4.0  152P/Helin-Lawrence                                      MPC 79346
0153P         2002 03 22.2965  0.510094  0.990055   34.8660   93.2532   27.9340  20170314   7.0  4.0  153P/Ikeya-Zhang                                         MPC 46101
0154P         2013 12 10.6384  1.558416  0.675799   47.8982  343.1419   17.6957  20170314   2.5 12.0  154P/Brewington                                          MPC 87068
0155P         2019 11 15.0053  1.798355  0.726851   14.7204   97.2329    6.3976  20170314  10.0  4.8  155P/Shoemaker                                           MPC 75720
0156P         2014 04 20.1850  1.553684  0.565622  357.8126   38.4752   21.1060  20170314  15.5  2.0  156P/Russell-LINEAR                                      MPC 92985
0157P         2016 06 10.4154  1.357867  0.601893  148.9437  299.9550    7.2829  20170314  10.0  4.0  157P/Tritton                                             MPC 95214
0158P         2013 01  5.9478  4.619849  0.027853  243.7424  137.2485    7.8941  20170314   9.0  4.0  158P/Kowal-LINEAR                                        MPC 10028
0159P         2018 05 23.1365  3.624551  0.381690    4.8200   55.0276   23.4609  20170314  10.0  4.0  159P/LONEOS                                              MPC 75721
